CCSDS_OMM_VERS = 2.0
CREATION_DATE  = 
ORIGINATOR     = 

OBJECT_NAME    = CZ-2D R/B
OBJECT_ID      = 2005-024B
CENTER_NAME    = EARTH
REF_FRAME      = TEME
TIME_SYSTEM    = UTC
MEAN_ELEMENT_THEORY = SGP/SGP4

EPOCH          = 2025-11-28T23:52:18.130656
MEAN_MOTION    = 15.52224066
ECCENTRICITY   = .0007465
INCLINATION    = 97.3648
RA_OF_ASC_NODE = 340.0922
ARG_OF_PERICENTER = 47.6991
MEAN_ANOMALY   = 312.4893

EPHEMERIS_TYPE = 0
CLASSIFICATION_TYPE = U
NORAD_CAT_ID   = 28738
ELEMENT_SET_NO = 999
REV_AT_EPOCH   = 12412
BSTAR          = .43774E-3
MEAN_MOTION_DOT = .26526E-3
MEAN_MOTION_DDOT = 0

CCSDS_OMM_VERS = 2.0
CREATION_DATE  = 
ORIGINATOR     = 

OBJECT_NAME    = ALOS (DAICHI)
OBJECT_ID      = 2006-002A
CENTER_NAME    = EARTH
REF_FRAME      = TEME
TIME_SYSTEM    = UTC
MEAN_ELEMENT_THEORY = SGP/SGP4

EPOCH          = 2025-11-28T20:56:21.872832
MEAN_MOTION    = 14.69420096
ECCENTRICITY   = .0000709
INCLINATION    = 98.1074
RA_OF_ASC_NODE = 284.4599
ARG_OF_PERICENTER = 90.3329
MEAN_ANOMALY   = 269.7958

EPHEMERIS_TYPE = 0
CLASSIFICATION_TYPE = U
NORAD_CAT_ID   = 28931
ELEMENT_SET_NO = 999
REV_AT_EPOCH   = 5867
BSTAR          = .3019E-3
MEAN_MOTION_DOT = .1738E-4
MEAN_MOTION_DDOT = 0

CCSDS_OMM_VERS = 2.0
CREATION_DATE  = 
ORIGINATOR     = 

OBJECT_NAME    = H-2A R/B
OBJECT_ID      = 2006-002B
CENTER_NAME    = EARTH
REF_FRAME      = TEME
TIME_SYSTEM    = UTC
MEAN_ELEMENT_THEORY = SGP/SGP4

EPOCH          = 2025-11-29T02:34:54.405696
MEAN_MOTION    = 15.14147877
ECCENTRICITY   = .0054406
INCLINATION    = 98.2309
RA_OF_ASC_NODE = 106.7479
ARG_OF_PERICENTER = 222.6522
MEAN_ANOMALY   = 137.0478

EPHEMERIS_TYPE = 0
CLASSIFICATION_TYPE = U
NORAD_CAT_ID   = 28932
ELEMENT_SET_NO = 999
REV_AT_EPOCH   = 7920
BSTAR          = .56642E-3
MEAN_MOTION_DOT = .10639E-3
MEAN_MOTION_DDOT = 0

CCSDS_OMM_VERS = 2.0
CREATION_DATE  = 
ORIGINATOR     = 

OBJECT_NAME    = RESURS-DK 1
OBJECT_ID      = 2006-021A
CENTER_NAME    = EARTH
REF_FRAME      = TEME
TIME_SYSTEM    = UTC
MEAN_ELEMENT_THEORY = SGP/SGP4

EPOCH          = 2025-11-28T22:31:20.547264
MEAN_MOTION    = 15.12036963
ECCENTRICITY   = .0007677
INCLINATION    = 69.9319
RA_OF_ASC_NODE = 137.5000
ARG_OF_PERICENTER = 268.5696
MEAN_ANOMALY   = 91.4590

EPHEMERIS_TYPE = 0
CLASSIFICATION_TYPE = U
NORAD_CAT_ID   = 29228
ELEMENT_SET_NO = 999
REV_AT_EPOCH   = 7229
BSTAR          = .20775E-3
MEAN_MOTION_DOT = .3475E-4
MEAN_MOTION_DDOT = 0

CCSDS_OMM_VERS = 2.0
CREATION_DATE  = 
ORIGINATOR     = 

OBJECT_NAME    = CZ-4B R/B
OBJECT_ID      = 2006-046C
CENTER_NAME    = EARTH
REF_FRAME      = TEME
TIME_SYSTEM    = UTC
MEAN_ELEMENT_THEORY = SGP/SGP4

EPOCH          = 2025-11-29T02:29:40.678656
MEAN_MOTION    = 15.15662499
ECCENTRICITY   = .0032587
INCLINATION    = 97.5759
RA_OF_ASC_NODE = 13.2797
ARG_OF_PERICENTER = 255.3264
MEAN_ANOMALY   = 104.4355

EPHEMERIS_TYPE = 0
CLASSIFICATION_TYPE = U
NORAD_CAT_ID   = 29507
ELEMENT_SET_NO = 999
REV_AT_EPOCH   = 4480
BSTAR          = .27606E-3
MEAN_MOTION_DOT = .5252E-4
MEAN_MOTION_DDOT = 0

CCSDS_OMM_VERS = 2.0
CREATION_DATE  = 
ORIGINATOR     = 

OBJECT_NAME    = CZ-2C R/B
OBJECT_ID      = 2007-010B
CENTER_NAME    = EARTH
REF_FRAME      = TEME
TIME_SYSTEM    = UTC
MEAN_ELEMENT_THEORY = SGP/SGP4

EPOCH          = 2025-11-29T04:36:08.406144
MEAN_MOTION    = 14.20200768
ECCENTRICITY   = .0058257
INCLINATION    = 98.3970
RA_OF_ASC_NODE = 86.5248
ARG_OF_PERICENTER = 225.6097
MEAN_ANOMALY   = 134.0302

EPHEMERIS_TYPE = 0
CLASSIFICATION_TYPE = U
NORAD_CAT_ID   = 31114
ELEMENT_SET_NO = 999
REV_AT_EPOCH   = 96545
BSTAR          = .9701E-4
MEAN_MOTION_DOT = .169E-5
MEAN_MOTION_DDOT = 0

CCSDS_OMM_VERS = 2.0
CREATION_DATE  = 
ORIGINATOR     = 

OBJECT_NAME    = COSMO-SKYMED 1
OBJECT_ID      = 2007-023A
CENTER_NAME    = EARTH
REF_FRAME      = TEME
TIME_SYSTEM    = UTC
MEAN_ELEMENT_THEORY = SGP/SGP4

EPOCH          = 2025-11-29T03:22:22.300032
MEAN_MOTION    = 14.95611906
ECCENTRICITY   = .0001572
INCLINATION    = 97.8850
RA_OF_ASC_NODE = 158.4516
ARG_OF_PERICENTER = 88.0881
MEAN_ANOMALY   = 272.0519

EPHEMERIS_TYPE = 0
CLASSIFICATION_TYPE = U
NORAD_CAT_ID   = 31598
ELEMENT_SET_NO = 999
REV_AT_EPOCH   = 99986
BSTAR          = .4437E-3
MEAN_MOTION_DOT = .487E-4
MEAN_MOTION_DDOT = 0

CCSDS_OMM_VERS = 2.0
CREATION_DATE  = 
ORIGINATOR     = 

OBJECT_NAME    = COSMOS 2428
OBJECT_ID      = 2007-029A
CENTER_NAME    = EARTH
REF_FRAME      = TEME
TIME_SYSTEM    = UTC
MEAN_ELEMENT_THEORY = SGP/SGP4

EPOCH          = 2025-11-29T05:10:58.958688
MEAN_MOTION    = 14.12886483
ECCENTRICITY   = .0002925
INCLINATION    = 70.9375
RA_OF_ASC_NODE = 54.2734
ARG_OF_PERICENTER = 45.1065
MEAN_ANOMALY   = 315.0293

EPHEMERIS_TYPE = 0
CLASSIFICATION_TYPE = U
NORAD_CAT_ID   = 31792
ELEMENT_SET_NO = 999
REV_AT_EPOCH   = 94990
BSTAR          = -.17629E-4
MEAN_MOTION_DOT = -.81E-6
MEAN_MOTION_DDOT = 0

CCSDS_OMM_VERS = 2.0
CREATION_DATE  = 
ORIGINATOR     = 

OBJECT_NAME    = SL-16 R/B
OBJECT_ID      = 2007-029B
CENTER_NAME    = EARTH
REF_FRAME      = TEME
TIME_SYSTEM    = UTC
MEAN_ELEMENT_THEORY = SGP/SGP4

EPOCH          = 2025-11-29T04:02:53.320416
MEAN_MOTION    = 14.14816926
ECCENTRICITY   = .0002441
INCLINATION    = 70.9775
RA_OF_ASC_NODE = 23.6854
ARG_OF_PERICENTER = 266.0390
MEAN_ANOMALY   = 158.2162

EPHEMERIS_TYPE = 0
CLASSIFICATION_TYPE = U
NORAD_CAT_ID   = 31793
ELEMENT_SET_NO = 999
REV_AT_EPOCH   = 95115
BSTAR          = -.40286E-4
MEAN_MOTION_DOT = -.126E-5
MEAN_MOTION_DDOT = 0

CCSDS_OMM_VERS = 2.0
CREATION_DATE  = 
ORIGINATOR     = 

OBJECT_NAME    = KORONAS-FOTON
OBJECT_ID      = 2009-003A
CENTER_NAME    = EARTH
REF_FRAME      = TEME
TIME_SYSTEM    = UTC
MEAN_ELEMENT_THEORY = SGP/SGP4

EPOCH          = 2025-11-29T02:49:29.578080
MEAN_MOTION    = 15.40747563
ECCENTRICITY   = .0012324
INCLINATION    = 82.4328
RA_OF_ASC_NODE = 20.2152
ARG_OF_PERICENTER = 152.8306
MEAN_ANOMALY   = 207.3588

EPHEMERIS_TYPE = 0
CLASSIFICATION_TYPE = U
NORAD_CAT_ID   = 33504
ELEMENT_SET_NO = 999
REV_AT_EPOCH   = 93024
BSTAR          = .31839E-3
MEAN_MOTION_DOT = .13091E-3
MEAN_MOTION_DDOT = 0

CCSDS_OMM_VERS = 2.0
CREATION_DATE  = 
ORIGINATOR     = 

OBJECT_NAME    = CZ-2C R/B
OBJECT_ID      = 2011-030B
CENTER_NAME    = EARTH
REF_FRAME      = TEME
TIME_SYSTEM    = UTC
MEAN_ELEMENT_THEORY = SGP/SGP4

EPOCH          = 2025-11-29T03:18:28.808352
MEAN_MOTION    = 14.80827425
ECCENTRICITY   = .0051994
INCLINATION    = 97.8393
RA_OF_ASC_NODE = 287.5480
ARG_OF_PERICENTER = 319.0657
MEAN_ANOMALY   = 50.9331

EPHEMERIS_TYPE = 0
CLASSIFICATION_TYPE = U
NORAD_CAT_ID   = 37731
ELEMENT_SET_NO = 999
REV_AT_EPOCH   = 77521
BSTAR          = .25002E-3
MEAN_MOTION_DOT = .1919E-4
MEAN_MOTION_DDOT = 0

CCSDS_OMM_VERS = 2.0
CREATION_DATE  = 
ORIGINATOR     = 

OBJECT_NAME    = H-2A R/B
OBJECT_ID      = 2012-025E
CENTER_NAME    = EARTH
REF_FRAME      = TEME
TIME_SYSTEM    = UTC
MEAN_ELEMENT_THEORY = SGP/SGP4

EPOCH          = 2025-11-28T21:55:05.522304
MEAN_MOTION    = 14.94306668
ECCENTRICITY   = .0043807
INCLINATION    = 98.4581
RA_OF_ASC_NODE = 287.0808
ARG_OF_PERICENTER = 283.1714
MEAN_ANOMALY   = 76.4618

EPHEMERIS_TYPE = 0
CLASSIFICATION_TYPE = U
NORAD_CAT_ID   = 38341
ELEMENT_SET_NO = 999
REV_AT_EPOCH   = 73316
BSTAR          = .31356E-3
MEAN_MOTION_DOT = .3363E-4
MEAN_MOTION_DDOT = 0

