CZ-2D R/B               
1 28738U 05024B   25332.99465429  .00026526  00000+0  43774-3 0  9990
2 28738  97.3648 340.0922 0007465  47.6991 312.4893 15.52224066124128
ALOS (DAICHI)           
1 28931U 06002A   25332.87247538  .00001738  00000+0  30190-3 0  9994
2 28931  98.1074 284.4599 0000709  90.3329 269.7958 14.69420096 58670
H-2A R/B                
1 28932U 06002B   25333.10757414  .00010639  00000+0  56642-3 0  9991
2 28932  98.2309 106.7479 0054406 222.6522 137.0478 15.14147877 79204
RESURS-DK 1             
1 29228U 06021A   25332.93843226  .00003475  00000+0  20775-3 0  9996
2 29228  69.9319 137.5000 0007677 268.5696  91.4590 15.12036963 72291
CZ-4B R/B               
1 29507U 06046C   25333.10394304  .00005252  00000+0  27606-3 0  9996
2 29507  97.5759  13.2797 0032587 255.3264 104.4355 15.15662499 44804
CZ-2C R/B               
1 31114U 07010B   25333.19176396  .00000169  00000+0  97010-4 0  9992
2 31114  98.3970  86.5248 0058257 225.6097 134.0302 14.20200768965451
COSMO-SKYMED 1          
1 31598U 07023A   25333.14053588  .00004870  00000+0  44370-3 0  9997
2 31598  97.8850 158.4516 0001572  88.0881 272.0519 14.95611906999862
COSMOS 2428             
1 31792U 07029A   25333.21596017 -.00000081  00000+0 -17629-4 0  9996
2 31792  70.9375  54.2734 0002925  45.1065 315.0293 14.12886483949908
SL-16 R/B               
1 31793U 07029B   25333.16867269 -.00000126  00000+0 -40286-4 0  9996
2 31793  70.9775  23.6854 0002441 266.0390 158.2162 14.14816926951153
KORONAS-FOTON           
1 33504U 09003A   25333.11770345  .00013091  00000+0  31839-3 0  9991
2 33504  82.4328  20.2152 0012324 152.8306 207.3588 15.40747563930246
CZ-2C R/B               
1 37731U 11030B   25333.13783343  .00001919  00000+0  25002-3 0  9995
2 37731  97.8393 287.5480 0051994 319.0657  50.9331 14.80827425775219
H-2A R/B                
1 38341U 12025E   25332.91325836  .00003363  00000+0  31356-3 0  9996
2 38341  98.4581 287.0808 0043807 283.1714  76.4618 14.94306668733166
